#aV2021 12 14  0  0  0.00000000     288 DD+AD WGS84 FIT  NGA
## 2188 172800.00000000   300.00000000 59562 0.0000000000000
+   32     1  2  3  4  5  6  7  8  9 10 11 12 13 14 15 16 17
+         18 19 20 21 22 23 24 25 26 27 28 29 30 31 32  0  0
+          0  0  0  0  0  0  0  0  0  0  0  0  0  0  0  0  0
+          0  0  0  0  0  0  0  0  0  0  0  0  0  0  0  0  0
+          0  0  0  0  0  0  0  0  0  0  0  0  0  0  0  0  0
++         2  2  2  2  2  2  2  2  2  2  2  2  2  2  2  2  2
++         2  2  2  2  2  2  2  2  2  2  2  2  2  2  2  0  0
++         0  0  0  0  0  0  0  0  0  0  0  0  0  0  0  0  0
++         0  0  0  0  0  0  0  0  0  0  0  0  0  0  0  0  0
++         0  0  0  0  0  0  0  0  0  0  0  0  0  0  0  0  0
%c cc cc ccc ccc cccc cccc cccc cccc ccccc ccccc ccccc ccccc
%c cc cc ccc ccc cccc cccc cccc cccc ccccc ccccc ccccc ccccc
%f  0.0000000  0.000000000  0.00000000000  0.000000000000000
%f  0.0000000  0.000000000  0.00000000000  0.000000000000000
%i    0    0    0    0      0      0      0      0         0
%i    0    0    0    0      0      0      0      0         0
/*      NGA, ST. LOUIS,MO.                                  
/*   EPHEMERIS COMPUTED FROM 2 DAYS OF DATA                 
/*   EPOCHA v7 SMOOTHER                                     
/*   G2139 IERS2010 SATIGS SATAPC                           
*  2021 12 14 21  5  0.00000000
P  1  -9319.693571 -13448.513235 -21271.318846    484.024429                    
V  1  26129.178411  -2243.189843  -9832.478984     -0.101683                    
P  2 -13811.722878  14778.672994  17925.733174   -645.663955                    
V  2 -21359.653776   2038.145710 -18747.801309     -0.012459                    
P  3 -12376.019970 -23165.637694  -4415.797671    -41.797679                    
V  3   5009.768630   3164.645027 -31282.775335     -0.123246                    
P  4  -3221.273778 -19974.208193  17167.967244   -199.016080                    
V  4  11580.554425 -18591.452527 -19532.157019      0.012955                    
P  5    632.314661  20392.442739  16759.768535    -64.416675                    
V  5 -14591.154349 -16128.165971  20126.700144     -0.012993                    
P  6 -25320.412205   5809.213619   5754.453478    142.838794                    
V  6  -7312.848007  -1322.132513 -31153.656585      0.100394                    
P  7 -23173.230577  -6809.084904  11965.182669    290.833512                    
V  7  14255.141011  -3239.186974  26115.259524      0.045172                    
P  8   4887.091224 -24632.485842  -8125.608627    -48.090442                    
V  8   6763.680056  -8350.173897  29755.407813     -0.014957                    
P  9 -12247.652085  -9758.931943  21374.430424   -360.427689                    
V  9  11652.094779 -24744.347168  -4634.979936      0.007183                    
P 10  18492.405214   4404.783844 -18542.013092   -268.778564                    
V 10  12559.373792  20107.450370  16895.532364     -0.089604                    
P 11 -16698.801545  12092.753161  16731.827748     12.873410                    
V 11 -21296.661495  -1272.636806 -20342.920584     -0.032875                    
P 12   9258.918576  24205.652123  -6387.555674   -140.800674                    
V 12  -5855.791879  -5525.029443 -30527.851997     -0.055947                    
P 13 -12792.304148  23049.400783  -2611.874521    229.518506                    
V 13  -3972.938167   1168.440280  31785.754167      0.058259                    
P 14 -18534.890241  -4914.128970 -18405.297042    -55.199814                    
V 14 -11189.440452 -20568.655820  16702.374568     -0.061695                    
P 15  -1302.331973  24983.255596  -8820.756149    -99.149728                    
V 15  -6849.951396   9118.346834  28451.673997      0.028354                    
P 16   4243.709008 -18131.868699  18495.265829   -440.358585                    
V 16  13330.251577  20212.641115  16980.360623     -0.059851                    
P 17 -17293.111248   4803.459724 -19150.438078    547.489986                    
V 17  11139.883333 -22638.333202 -15356.908624      0.053417                    
P 18  23468.544629   6081.370879  10961.372062    279.448528                    
V 18 -13720.033913   2955.939567  27625.728033     -0.065968                    
P 19 -18783.595157  12183.467361 -14414.163389     92.225065                    
V 19   7829.334187 -16177.855646 -24485.392965      0.049869                    
P 20  -8043.801910  13921.420092  21157.597244    517.641197                    
V 20 -18857.691275 -19240.215892   5227.691834     -0.001722                    
P 21    383.485486 -15078.878186 -21135.949736    153.729055                    
V 21  28271.080086  -3906.116938   3771.384929      0.009697                    
P 22  -7651.903626 -22410.002734 -12067.463408   -441.384439                    
V 22  12301.067170   9938.646013 -25678.376592      0.089766                    
P 23  19658.484351  14524.612471 -10521.704523     21.867157                    
V 23   6064.566684  12039.823315  27910.374425     -0.041413                    
P 24   5086.573544  15246.067800 -21458.104559    274.634755                    
V 24 -26305.934524   4314.094571  -2799.639502      0.020163                    
P 25  17239.350010  19994.199276   3796.552277    255.769392                    
V 25    778.389509   5703.075588 -31046.883060      0.057584                    
P 26  14025.189063  -7289.790714  21295.202457    164.991989                    
V 26  16454.929230  21736.407459  -3085.835312      0.036422                    
P 27  12245.052223 -23255.428938   1698.503270   -231.045028                    
V 27   1449.020424   3339.949050  32200.906944     -0.046438                    
P 28 -15075.565889   2711.484760 -21138.886840    443.077350                    
V 28 -13216.991838 -24817.469756   6303.169607     -0.077374                    
P 29   8159.404411  14011.820437  20985.017426   -454.008268                    
V 29 -13764.430310  22877.421693  -9959.536952     -0.050800                    
P 30 -26604.982373      5.806904   2208.673586   -499.309318                    
V 30   2503.908562  -3524.692213  30881.559713     -0.029313                    
P 31  24717.487270  -6852.050644   7661.506154   -155.046677                    
V 31   9893.728277   1878.327147 -29317.716721     -0.018434                    
P 32  17703.957077  -9152.359200 -17348.272195    -35.195415                    
V 32  -7674.946157  21066.254675 -19000.285858     -0.054043                    
EOF
